COSMOS 2489             
1 39484U 13076B   23349.55926564  .00000036  00000+0  18627-3 0  9993
2 39484  82.4891  19.7785 0020090 290.0208  69.8709 12.42868524452328
COSMOS 2490             
1 39485U 13076C   23349.77483815  .00000035  00000+0  18268-3 0  9995
2 39485  82.4837  18.1165 0020001 305.2913  54.6295 12.42882860452497
AIST-1 (RS-41)          
1 39492U 13078C   23349.75097971  .00001569  00000+0  15756-3 0  9999
2 39492  82.4186  73.1801 0020141  93.5717 266.7805 14.90514921541086
KAZEOSAT 1              
1 39731U 14024A   23349.78193578  .00000235  00000+0  85012-4 0  9992
2 39731  98.4147  64.0962 0001230  84.2726 275.8604 14.41988621506827
COSMOS 2496             
1 39761U 14028A   23349.57268948  .00000025  00000+0  10720-3 0  9990
2 39761  82.4449 321.6128 0018452 274.0953  85.8017 12.42885056433899
COSMOS 2497             
1 39762U 14028B   23349.54475931  .00000022  00000+0  92298-4 0  9998
2 39762  82.4497 322.9553 0019019 267.4014  92.4888 12.42871343433897
COSMOS 2498             
1 39763U 14028C   23349.58123826  .00000011  00000+0  12729-4 0  9995
2 39763  82.4460 321.7964 0019649 267.5213  92.3617 12.42929562433922
COSMOS 2499 (RS-47)     
1 39765U 14028E   23349.78146803  .00000005  00000+0 -18962-4 0  9998
2 39765  82.4480 149.4440 0231252 348.6478  10.9457 12.82866277447997
SPROUT                  
1 39770U 14029E   23349.33188694  .00024537  00000+0  13463-2 0  9994
2 39770  98.0024 123.5864 0004323  64.6179 295.5498 15.14143478519448
HODOYOSHI-4             
1 40011U 14033B   23349.79789162  .00001182  00000+0  14942-3 0  9991
2 40011  97.6000 203.4674 0027180  86.5228 273.9094 14.83378438513029
UNISAT-6                
1 40012U 14033C   23349.43714463  .00002759  00000+0  37918-3 0  9994
2 40012  97.6824 154.8783 0054261 185.9405 174.1169 14.78093322510533
DEIMOS-2                
1 40013U 14033D   23349.75873940  .00001775  00000+0  20091-3 0  9997
2 40013  97.7026 236.8718 0002318  95.9942 264.1539 14.87642376514332
BUGSAT-1 (TITA)         
1 40014U 14033E   23349.55270590  .00003529  00000+0  27411-3 0  9990
2 40014  98.1517  16.9549 0036773  31.8618 328.4819 15.01516787517918
SAUDISAT 4              
1 40016U 14033G   23349.43537642  .00000809  00000+0  12076-3 0  9992
2 40016  97.6473 159.6533 0047528 167.4167 192.8243 14.76606787510938
APRIZESAT 9             
1 40018U 14033J   23349.38412906  .00000768  00000+0  12784-3 0  9993
2 40018  97.7753 137.9138 0068320 260.3716  98.9768 14.71352349508895
BRITE-CA1 (TORONTO)     
1 40020U 14033L   23349.83999900  .00000917  00000+0  15811-3 0  9990
2 40020  97.8502 128.8918 0083468 321.3301  38.1947 14.68610041507913
DUCHIFAT-1              
1 40021U 14033M   23349.44290729  .00006671  00000+0  51650-3 0  9995
2 40021  98.0763 319.8806 0014508  17.1165 343.0544 15.01722101516359
NANOSATC-BR1            
1 40024U 14033Q   23349.82363496  .00006247  00000+0  52004-3 0  9995
2 40024  98.0509 310.1060 0010685  42.2440 317.9603 14.99000941516110
QB50P1                  
1 40025U 14033R   23349.85300511  .00004693  00000+0  41979-3 0  9990
2 40025  98.0198 300.3466 0012347  54.5749 305.6623 14.96314989515797
DTUSAT-2                
1 40030U 14033W   23349.84217962  .00004485  00000+0  41186-3 0  9991
2 40030  97.9877 293.1406 0011862  52.9636 307.2667 14.95314148515631
FLOCK 1C-4              
1 40031U 14033X   23349.47759335  .00007268  00000+0  57527-3 0  9994
2 40031  98.0592 313.0562 0009111  43.5221 316.6720 15.00893158515457
QB50P2                  
1 40032U 14033Y   23349.81615965  .00004346  00000+0  39889-3 0  9998
2 40032  97.9884 293.1289 0012140  54.8271 305.4085 14.95349504515612
PERSEUS-M1              
1 40039U 14033AF  23349.79645648  .00001698  00000+0  18611-3 0  9990
2 40039  97.9007 271.7865 0015026  82.5849 277.7074 14.89022119514748
POLYITAN-1              
1 40042U 14033AJ  23349.84684844  .00005853  00000+0  50120-3 0  9999
2 40042  98.0333 302.8324 0014331  46.1389 314.1013 14.97898841515714
TIGRISAT                
1 40043U 14033AK  23349.40976274  .00002127  00000+0  29717-3 0  9992
2 40043  97.6744 155.5474 0056626 183.6802 176.4001 14.77534433510167
AISAT                   
1 40054U 14034B   23349.57329105  .00005045  00000+0  58695-3 0  9997
2 40054  98.3523 190.5054 0010928   5.6169 354.5165 14.85747527510371
CANX-4                  
1 40055U 14034C   23349.46182137  .00001067  00000+0  15833-3 0  9995
2 40055  98.3927 171.6181 0014675  62.5997 297.6703 14.77219860509272
CANX-5                  
1 40056U 14034D   23349.46801079  .00001077  00000+0  15975-3 0  9997
2 40056  98.3931 171.6192 0014679  62.7392 297.5310 14.77226743500086
VELOX-I                 
1 40057U 14034E   23349.80093848  .00003310  00000+0  40725-3 0  9996
2 40057  98.3567 191.1905 0010199  23.6450 336.5229 14.83696414510341
GONETS-M 10             
1 40063U 14036C   23349.57254725  .00000018  00000+0  58328-4 0  9993
2 40063  82.5091 155.7261 0021309 338.8879  21.1319 12.42905716428624
METEOR-M 2              
1 40069U 14037A   23349.74851661  .00000100  00000+0  65279-4 0  9996
2 40069  98.4285 347.3380 0005960 163.5921 196.5450 14.20856097489432
DX1                     
1 40071U 14037C   23349.78233496  .00001541  00000+0  19302-3 0  9998
2 40071  98.3434 248.9541 0008340   8.9544 351.1816 14.83790203510281
UKUBE-1                 
1 40074U 14037F   23349.71971820  .00005178  00000+0  53538-3 0  9993
2 40074  98.3398 263.8997 0003470 343.1024  17.0076 14.90577889511277
GAOFEN-2                
1 40118U 14049A   23349.79587363  .00001016  00000+0  13877-3 0  9997
2 40118  97.6904  43.3134 0004914 345.6691  14.4382 14.80649039503948
BRITE-PL2 (HEWELIUSZ)   
1 40119U 14049B   23349.24965173  .00001628  00000+0  18503-3 0  9997
2 40119  97.8837  85.0110 0015080 251.4369 108.5209 14.87582142505072
HODOYOSHI-1             
1 40299U 14070B   23349.77941041  .00012539  00000+0  32349-3 0  9993
2 40299  97.1698  48.1064 0008940 355.4647   4.6517 15.39259075506688
CBERS 4                 
1 40336U 14079A   23349.82390157  .00000135  00000+0  61847-4 0  9991
2 40336  98.4249  57.7571 0001631 119.6910 240.4439 14.35455622472796
SMAP                    
1 40376U 15003A   23349.54927807  .00000529  00000+0  11149-3 0  9996
2 40376  98.1285 353.5537 0001499  91.4640 268.6734 14.63363067473855
GRIFEX                  
1 40379U 15003D   23349.51088695  .00083581  00000+0  72111-3 0  9994
2 40379  99.0847 333.5036 0045491   1.8997 358.2423 15.67594586491481
CP10 (EXOCUBE)          
1 40380U 15003E   23349.47595989  .00033866  00000+0  61138-3 0  9998
2 40380  99.0987 319.0626 0075552  43.8593 316.8616 15.46485119490594
GONETS-M 11             
1 40552U 15020A   23349.55641990  .00000057  00000+0  33729-3 0  9992
2 40552  82.4861 240.8307 0015606 197.0669 162.9888 12.42890118395114
GONETS-M 12             
1 40553U 15020B   23349.52941977  .00000056  00000+0  33374-3 0  9993
2 40553  82.4896 241.7107 0014272 180.6555 179.4508 12.42871395395108
GONETS-M 13             
1 40554U 15020C   23349.58384703  .00000071  00000+0  44054-3 0  9992
2 40554  82.4856 240.5875 0013107 165.1178 195.0290 12.42901368395082
DMC3-FM1                
1 40715U 15032A   23349.81515515  .00000701  00000+0  92298-4 0  9991
2 40715  97.7743 228.8867 0006047 161.8816 198.2614 14.83162799454245
DMC3-FM2                
1 40716U 15032B   23349.77101139  .00000728  00000+0  95489-4 0  9994
2 40716  97.7794 229.7934 0007765 170.2480 189.8886 14.83175829454230
DMC3-FM3                
1 40717U 15032C   23349.79253261  .00000732  00000+0  96086-4 0  9990
2 40717  97.7839 230.9895 0009311 168.7944 191.3479 14.83167854454243
CARBONITE 1 (CBNT-1)    
1 40718U 15032D   23349.77994697  .00001396  00000+0  20252-3 0  9992
2 40718  97.6698 193.8388 0017039  47.1521 313.1118 14.77422236454028
DEORBITSAIL             
1 40719U 15032E   23349.57701381  .00004755  00000+0  57996-3 0  9994
2 40719  97.7077 214.1272 0015237  28.3016 331.9023 14.83722630454692
2015-049A               
1 40899U 15049A   23349.79632657  .00011888  00000+0  39120-3 0  9998
2 40899  97.4764 358.1285 0008402 245.0440 114.9929 15.31633620456341
KAITUO 1A               
1 40904U 15049F   23349.80742453  .00016658  00000+0  51105-3 0  9990
2 40904  97.4953 357.2368 0007430 252.2549 107.7882 15.33804905456076
2015-049G               
1 40905U 15049G   23349.76507313  .00006941  00000+0  28783-3 0  9990
2 40905  97.5255 352.5605 0010724 271.1731  88.8277 15.24149900455587
XW-2C                   
1 40906U 15049H   23349.74650980  .00012390  00000+0  39707-3 0  9991
2 40906  97.4898 358.1949 0008188 235.4229 124.6241 15.32474082456143
XW-2D                   
1 40907U 15049J   23349.78601295  .00017244  00000+0  49463-3 0  9994
2 40907  97.4866 359.4251 0007070 221.9997 138.0705 15.35922400456284
LILACSAT-2              
1 40908U 15049K   23349.73193458  .00005350  00000+0  23346-3 0  9994
2 40908  97.5270 352.6514 0011339 279.0522  80.9431 15.22526095455391
XW-2E                   
1 40909U 15049L   23349.78114415  .00062271  00000+0  83454-3 0  9997
2 40909  97.4355   8.6351 0005699 153.1618 206.9934 15.57762142457205
XW-2F                   
1 40910U 15049M   23349.80720260  .00058233  00000+0  81277-3 0  9997
2 40910  97.4459   7.9179 0006146 159.0194 201.1314 15.56681201456937
XW-2B                   
1 40911U 15049N   23349.74991233  .00016220  00000+0  47085-3 0  9990
2 40911  97.4843 359.6937 0007173 224.3074 135.7596 15.35559564456159
KAITUO 1B               
1 40912U 15049P   23349.74132050  .00193991  00000+0  11807-2 0  9998
2 40912  97.3894  14.0984 0006333 111.0887 249.1057 15.76881555457831
COSMOS 2507             
1 40920U 15050A   23349.55747666  .00000048  00000+0  27697-3 0  9998
2 40920  82.4917 289.0511 0008816 177.1702 182.9429 12.42879605373239
